[{"OBJECT_NAME":"CONTINUUM-1","OBJECT_ID":"2023-001AN","EPOCH":"2026-03-09T23:17:35.458656","MEAN_MOTION":15.27981258,"ECCENTRICITY":0.00109493,"INCLINATION":97.3456,"RA_OF_ASC_NODE":133.3964,"ARG_OF_PERICENTER":60.1976,"MEAN_ANOMALY":300.0351,"EPHEMERIS_TYPE":0,"CLASSIFICATION_TYPE":"U","NORAD_CAT_ID":55045,"ELEMENT_SET_NO":999,"REV_AT_EPOCH":17709,"BSTAR":0.00052859897,"MEAN_MOTION_DOT":0.00014395,"MEAN_MOTION_DDOT":0},{"OBJECT_NAME":"STARLINK-35393","OBJECT_ID":"2025-221E","EPOCH":"2026-03-09T10:46:33.143808","MEAN_MOTION":15.30205542,"ECCENTRICITY":0.00013987,"INCLINATION":53.1596,"RA_OF_ASC_NODE":89.6657,"ARG_OF_PERICENTER":94.3604,"MEAN_ANOMALY":265.7557,"EPHEMERIS_TYPE":0,"CLASSIFICATION_TYPE":"U","NORAD_CAT_ID":65827,"ELEMENT_SET_NO":999,"REV_AT_EPOCH":2604,"BSTAR":0.0007632145,"MEAN_MOTION_DOT":0.00022317,"MEAN_MOTION_DDOT":0}]
